LVM3 R/B                
1 66310U 25249A   25321.03081294  .00043341  69115-7  12173-2 0  9998
2 66310  21.3409 152.3014 6676909 193.1419 132.5963  3.13070533   479
CMS-03 (GSAT-7R)        
1 66311U 25249B   25321.46841124 -.00000242  00000+0  00000+0 0  9999
2 66311   0.2044 271.4603 0004476 201.8674 205.5528  1.00269738   239
YAOGAN-46               
1 66313U 25250A   25316.61346953 -.00000009  00000+0  00000+0 0  9995
2 66313  20.0301 111.3998 0049241 123.4899 237.0003  5.35115895   585
CZ-7A R/B               
1 66314U 25250B   25316.23333361  .31292675 -21828-4  14021-2 0  9996
2 66314  19.9176  96.2576 3166388 167.6396 202.4838  9.41652562   864
SENTINEL-1D             
1 66315U 25251A   25321.49705451  .00000364  00000+0  86352-4 0  9994
2 66315  98.1941 326.8461 0000541 304.8363  55.2786 14.59505007  1855
QPS-SAR-14 (YACHIHOKO-I)
1 66316U 25252A   25321.45793083  .00008358  00000+0  72226-3 0  9995
2 66316  42.0043 213.9298 0008853 335.8380  24.2028 14.97346827  1746
ELECTRON R/B            
1 66317U 25252B   25320.91535922  .00663329  14138-3  15668-2 0  9994
2 66317  41.9963 210.6027 0206001 313.5300  44.8597 15.68592155  1734
ELECTRON KICK STAGE R/B 
1 66318U 25252C   25321.40286565  .01084892  42197-3  20894-2 0  9992
2 66318  41.9864 207.3308 0187146 107.1644 254.9791 15.75316217  1816
STARLINK-35442          
1 66319U 25253A   25321.50003471 -.01604814  00000+0 -81316-2 0  9991
2 66319  42.9962 133.9256 0001640 274.8445 196.6893 15.83476330  2962
STARLINK-34616          
1 66320U 25253B   25321.50003471 -.01626737  00000+0 -82511-2 0  9999
2 66320  42.9956 133.9198 0001462 277.4529 196.0116 15.83499139  3073
STARLINK-34615          
1 66321U 25253C   25321.50003471 -.01650403  00000+0 -83992-2 0  9991
2 66321  42.9958 133.9140 0001578 274.2526 201.7071 15.83473580  2922
STARLINK-35292          
1 66322U 25253D   25321.25001157 -.01754067  00000+0 -87322-2 0  9995
2 66322  42.9961 135.4198 0001629 274.0489 226.4064 15.84131012  2838
STARLINK-35309          
1 66323U 25253E   25321.50003471 -.01785582  00000+0 -91392-2 0  9993
2 66323  42.9959 133.8685 0001562 270.7437 223.5761 15.83102694  2870
STARLINK-35506          
1 66324U 25253F   25321.50003471 -.01715680  00000+0 -89016-2 0  9996
2 66324  42.9957 133.8908 0001440 274.0407 211.1001 15.83201697  2970
STARLINK-35504          
1 66325U 25253G   25321.50003471 -.01730698  00000+0 -90234-2 0  9997
2 66325  42.9961 133.8793 0001521 275.1094 214.8513 15.83128778  2877
STARLINK-35479          
1 66326U 25253H   25321.50003471 -.01789993  00000+0 -91630-2 0  9991
2 66326  42.9956 133.8626 0001555 272.8722 223.4398 15.83107089  2976
STARLINK-35507          
1 66327U 25253J   25321.50003471 -.01686936  00000+0 -86524-2 0  9991
2 66327  42.9962 133.9013 0001458 275.0175 206.1618 15.83383932  2970
STARLINK-35460          
1 66328U 25253K   25321.50003471 -.01810331  00000+0 -92853-2 0  9992
2 66328  42.9954 133.8458 0001519 273.3402 229.1996 15.83099067  2973
STARLINK-35505          
1 66329U 25253L   25321.50003471 -.01677712  00000+0 -85899-2 0  9999
2 66329  42.9961 133.9074 0001540 269.8037 209.1556 15.83401699  2872
STARLINK-35512          
1 66330U 25253M   25321.50003471 -.01775381  00000+0 -90671-2 0  9996
2 66330  42.9957 133.8739 0001542 271.3643 220.6204 15.83132393  2879
STARLINK-35257          
1 66331U 25253N   25321.50003471 -.01838457  00000+0 -94621-2 0  9990
2 66331  42.9957 133.8303 0001436 272.0208 236.9704 15.83073231  2605
STARLINK-35322          
1 66332U 25253P   25321.50003471 -.01795528  00000+0 -91947-2 0  9990
2 66332  42.9957 133.8569 0001537 271.6673 226.6723 15.83108566  2879
STARLINK-35400          
1 66333U 25253Q   25321.50003471 -.01828914  00000+0 -94058-2 0  9993
2 66333  42.9953 133.8347 0001526 269.6716 237.2585 15.83072783  2878
STARLINK-35407          
1 66334U 25253R   25321.50003471 -.01814282  00000+0 -93105-2 0  9999
2 66334  42.9961 133.8521 0001392 271.9041 228.6834 15.83095933  2873
STARLINK-35417          
1 66335U 25253S   25321.50003471 -.01870480  00000+0 -96833-2 0  9993
2 66335  42.9958 133.8077 0001456 269.4383 248.4698 15.83002884  2879
STARLINK-35404          
1 66336U 25253T   25321.50003471 -.01847914  00000+0 -95383-2 0  9999
2 66336  42.9956 133.8242 0001508 269.5427 241.9534 15.83027267  2970
STARLINK-34783          
1 66337U 25253U   25321.50003471 -.01887869  00000+0 -98208-2 0  9992
2 66337  42.9957 133.8008 0001436 271.3012 249.3848 15.82930218  2926
STARLINK-35477          
1 66338U 25253V   25321.50003471 -.01867903  00000+0 -96776-2 0  9998
2 66338  42.9955 133.8134 0001411 271.1750 244.8767 15.82982901  2976
STARLINK-35443          
1 66339U 25253W   25321.50003471 -.01941767  00000+0 -10305-1 0  9993
2 66339  42.9954 133.7772 0001413 270.1953 259.5677 15.82600900  2923
STARLINK-35218          
1 66340U 25253X   25321.50003471 -.01857889  00000+0 -96132-2 0  9999
2 66340  42.9955 133.8178 0001517 272.4996 241.3879 15.82992525  2979
STARLINK-35522          
1 66341U 25253Y   25321.50003471 -.01815421  00000+0 -93139-2 0  9990
2 66341  42.9964 133.8427 0001460 272.9526 231.6002 15.83102400  2974
STARLINK-35535          
1 66342U 25253Z   25321.50003471 -.01934568  00000+0 -10250-1 0  9997
2 66342  42.9954 133.7828 0001467 267.4937 260.0164 15.82623321  2873
STARLINK-35467          
1 66343U 25253AA  25321.50003471 -.01921139  00000+0 -10154-1 0  9991
2 66343  42.9951 133.7886 0001451 270.0084 255.1544 15.82651740  2874
STARLINK-35511          
1 66344U 25253AB  25321.50003471 -.01973457  00000+0 -10518-1 0  9996
2 66344  42.9955 133.7612 0001308 271.7782 264.5554 15.82565684  2876
STARLINK-35440          
1 66345U 25253AC  25321.50003471 -.01952333  00000+0 -10371-1 0  9994
2 66345  42.9947 133.7698 0001426 266.9859 264.8901 15.82598504  2870
STARLINK-35482          
1 66346U 25253AD  25321.50003471 -.01955342  00000+0 -10394-1 0  9993
2 66346  42.9949 133.7657 0001434 264.4088 269.5841 15.82590137  2974
STARLINK-35438          
1 66347U 25253AE  25321.50003471 -.01977174  00000+0 -10526-1 0  9998
2 66347  42.9950 133.7551 0001302 269.6380 268.5044 15.82596542  2875
SHIYAN-32 A             
1 66376U 25255A   25321.54322828  .00026856  00000+0  63538-3 0  9998
2 66376  52.9970 297.7263 0013124 321.9924  38.0152 15.41551987  1465
SHIYAN-32 B             
1 66377U 25255B   25321.54093079  .00048874  00000+0  11208-2 0  9992
2 66377  52.9974 297.7122 0014407 319.9559  40.0382 15.42176689  1326
SHIYAN-32 C             
1 66378U 25255C   25321.53953961  .00046908  00000+0  10660-2 0  9994
2 66378  52.9987 297.7032 0013903 323.7747  36.2314 15.42472966  1322
CZ-11H R/B              
1 66379U 25255D   25321.54117889  .00025526  00000+0  59693-3 0  9990
2 66379  52.9976 297.7139 0015061 323.1046  36.8920 15.41903720  1349
CHUTIAN-2 A             
1 66409U 25256A   25321.53797834  .00000112  00000+0  39529-4 0  9999
2 66409  98.2788  26.7394 0012970 259.6328 100.3405 14.50846448  1226
CHUTIAN-2 B             
1 66410U 25256B   25321.53724764  .00001152  00000+0  30237-3 0  9994
2 66410  98.2824  26.7447 0012677 262.5968  97.3786 14.50976567  1228
ZK-1A R/B               
1 66411U 25256C   25321.65799156  .00003133  00000+0  14035-3 0  9994
2 66411  98.3259  27.6162 0232932 328.5887  30.1595 15.01153947  1282
HULIANWANG DIGUI 13A    
1 66412U 25258A   25317.73056207  .00000041  00000+0  83956-4 0  9998
2 66412  50.0047  24.1929 0013881 257.7847 102.1513 14.25865331   523
HULIANWANG DIGUI 13B    
1 66413U 25258B   25320.39321609  .00000122  00000+0  11719-3 0  9993
2 66413  50.0051  12.9380 0013184 265.6853  94.2554 14.25999228   907
HULIANWANG DIGUI 13C    
1 66414U 25258C   25319.13180464  .00000144  00000+0  12667-3 0  9993
2 66414  50.0035  18.2644 0013241 262.4619  97.4791 14.25997524   726
HULIANWANG DIGUI 13D    
1 66415U 25258D   25317.44978209  .00000129  00000+0  12023-3 0  9997
2 66415  50.0051  25.3748 0013151 262.1731  97.7690 14.26053887   481
HULIANWANG DIGUI 13E    
1 66416U 25258E   25319.34135603  .00000140  00000+0  12439-3 0  9996
2 66416  50.0061  17.3799 0012455 268.0844  91.8644 14.26185204   759
HULIANWANG DIGUI 13F    
1 66417U 25258F   25316.60855652  .00000101  00000+0  10833-3 0  9999
2 66417  50.0012  28.9164 0012058 253.6622 106.2967 14.26237817   367
HULIANWANG DIGUI 13G    
1 66418U 25258G   25317.72963411  .00000170  00000+0  13660-3 0  9994
2 66418  50.0008  24.1756 0012381 260.9439  99.0074 14.26232788   522
HULIANWANG DIGUI 13H    
1 66419U 25258H   25318.49989882  .00000137  00000+0  12262-3 0  9990
2 66419  50.0011  20.9157 0011467 262.6507  97.3104 14.26388412   638
HULIANWANG DIGUI 13J    
1 66420U 25258J   25319.41024359  .00000134  00000+0  12129-3 0  9993
2 66420  50.0035  17.0701 0011005 270.1786  89.7867 14.26504609   751
CZ-12 R/B               
1 66421U 25258K   25321.29256593 -.00000034  00000+0  40501-4 0  9996
2 66421  49.9959   8.3696 0064717 157.9461 202.4267 14.42309505  1047
2025-261A               
1 66454U 25261A   25318.27530208 -.00000083  00000+0  00000+0 0  9997
2 66454   5.9996 294.4656 2346179 181.9163 155.0080  2.28613637    09
2025-261B               
1 66455U 25261B   25318.30100461 -.00000084  00000+0  00000+0 0  9997
2 66455   6.5734 293.9537 2328910 182.3295 176.3366  2.28211483    09
SENTINEL-6B             
1 66514U 25264A   25321.50291696 -.00000058  00000+0  16519-4 0  9991
2 66514  66.0462 215.2485 0012167 271.3605  88.6019 12.85968334    41
